ONEWEB-0205             
1 48226U 21031S   26128.93708773 -.00000032  00000+0 -12212-3 0  9999
2 48226  87.8936 297.5255 0001647  99.9641 260.1675 13.14503764243118
ONEWEB-0206             
1 48227U 21031T   26128.98625203  .00000281  00000+0  72405-3 0  9995
2 48227  87.8934 297.5184 0001929  92.3834 267.7517 13.14501227243077
ONEWEB-0182             
1 48228U 21031U   26128.98149602  .00000218  00000+0  55336-3 0  9994
2 48228  87.8928 297.5282 0001880 100.9951 259.1390 13.14504064243281
ONEWEB-0186             
1 48229U 21031V   26128.99259642  .00000290  00000+0  74785-3 0  9991
2 48229  87.8935 297.5143 0001656  96.5126 263.6192 13.14504273243238
ONEWEB-0181             
1 48230U 21031W   26128.97040683 -.00000014  00000+0 -72244-4 0  9999
2 48230  87.8918 297.5541 0001536  94.4419 265.6886 13.14503218243085
ONEWEB-0188             
1 48231U 21031X   26129.00847470  .00000098  00000+0  23079-3 0  9995
2 48231  87.8923 297.5448 0001740  96.8973 263.2354 13.14502525242999
ONEWEB-0220             
1 48232U 21031Y   26128.97196551  .00000000  00000+0 -35159-4 0  9995
2 48232  87.8936 297.5195 0001637 101.6322 258.4992 13.14504639243253
ONEWEB-0165             
1 48233U 21031Z   26129.00051799  .00000229  00000+0  58294-3 0  9991
2 48233  87.8931 297.5291 0001427  91.0274 269.1019 13.14504373243211
ONEWEB-0199             
1 48234U 21031AA  26128.98465999  .00000286  00000+0  73604-3 0  9994
2 48234  87.8935 297.5159 0001926  93.6090 266.5260 13.14504496243111
ONEWEB-0203             
1 48235U 21031AB  26128.97515075  .00000061  00000+0  13022-3 0  9994
2 48235  87.8938 297.5207 0001765  89.1401 270.9931 13.14504106243129
ONEWEB-0197             
1 48236U 21031AC  26129.02575058 -.00000129  00000+0 -38239-3 0  9993
2 48236  87.8926 297.5012 0001959 102.8989 257.2360 13.14504358243044
ONEWEB-0194             
1 48237U 21031AD  26129.00528383  .00000137  00000+0  33390-3 0  9991
2 48237  87.8934 297.5253 0001911  90.0685 270.0664 13.14503454243215
ONEWEB-0193             
1 48238U 21031AE  26129.02114198  .00001072  00000+0  28570-2 0  9991
2 48238  87.8932 297.5127 0001890  92.8724 267.2622 13.14497396243167
ONEWEB-0191             
1 48239U 21031AF  26129.03223910 -.00000157  00000+0 -45679-3 0  9991
2 48239  87.8933 297.5075 0001872  99.6039 260.5302 13.14504524243023
ONEWEB-0195             
1 48240U 21031AG  26129.00925859  .00000091  00000+0  21179-3 0  9995
2 48240  87.8942 297.5115 0001375  93.8306 266.2981 13.14504011243006
ONEWEB-0201             
1 48241U 21031AH  26128.99748400  .00000278  00000+0  71629-3 0  9990
2 48241  87.8921 297.5348 0001703 108.4916 251.6398 13.14504170243238
