[{"OBJECT_NAME":"ONEWEB-0205","OBJECT_ID":"2021-031S","EPOCH":"2026-05-08T22:29:24.379872","MEAN_MOTION":13.14503764,"ECCENTRICITY":0.0001647,"INCLINATION":87.8936,"RA_OF_ASC_NODE":297.5255,"ARG_OF_PERICENTER":99.9641,"MEAN_ANOMALY":260.1675,"EPHEMERIS_TYPE":0,"CLASSIFICATION_TYPE":"U","NORAD_CAT_ID":48226,"ELEMENT_SET_NO":999,"REV_AT_EPOCH":24311,"BSTAR":-0.00012212,"MEAN_MOTION_DOT":-3.2e-07,"MEAN_MOTION_DDOT":0.0},{"OBJECT_NAME":"ONEWEB-0206","OBJECT_ID":"2021-031T","EPOCH":"2026-05-08T23:40:12.175392","MEAN_MOTION":13.14501227,"ECCENTRICITY":0.0001929,"INCLINATION":87.8934,"RA_OF_ASC_NODE":297.5184,"ARG_OF_PERICENTER":92.3834,"MEAN_ANOMALY":267.7517,"EPHEMERIS_TYPE":0,"CLASSIFICATION_TYPE":"U","NORAD_CAT_ID":48227,"ELEMENT_SET_NO":999,"REV_AT_EPOCH":24307,"BSTAR":0.00072405,"MEAN_MOTION_DOT":2.81e-06,"MEAN_MOTION_DDOT":0.0},{"OBJECT_NAME":"ONEWEB-0182","OBJECT_ID":"2021-031U","EPOCH":"2026-05-08T23:33:21.256128","MEAN_MOTION":13.14504064,"ECCENTRICITY":0.000188,"INCLINATION":87.8928,"RA_OF_ASC_NODE":297.5282,"ARG_OF_PERICENTER":100.9951,"MEAN_ANOMALY":259.139,"EPHEMERIS_TYPE":0,"CLASSIFICATION_TYPE":"U","NORAD_CAT_ID":48228,"ELEMENT_SET_NO":999,"REV_AT_EPOCH":24328,"BSTAR":0.00055336,"MEAN_MOTION_DOT":2.18e-06,"MEAN_MOTION_DDOT":0.0},{"OBJECT_NAME":"ONEWEB-0186","OBJECT_ID":"2021-031V","EPOCH":"2026-05-08T23:49:20.330688","MEAN_MOTION":13.14504273,"ECCENTRICITY":0.0001656,"INCLINATION":87.8935,"RA_OF_ASC_NODE":297.5143,"ARG_OF_PERICENTER":96.5126,"MEAN_ANOMALY":263.6192,"EPHEMERIS_TYPE":0,"CLASSIFICATION_TYPE":"U","NORAD_CAT_ID":48229,"ELEMENT_SET_NO":999,"REV_AT_EPOCH":24323,"BSTAR":0.00074785,"MEAN_MOTION_DOT":2.9e-06,"MEAN_MOTION_DDOT":0.0},{"OBJECT_NAME":"ONEWEB-0181","OBJECT_ID":"2021-031W","EPOCH":"2026-05-08T23:17:23.150112","MEAN_MOTION":13.14503218,"ECCENTRICITY":0.0001536,"INCLINATION":87.8918,"RA_OF_ASC_NODE":297.5541,"ARG_OF_PERICENTER":94.4419,"MEAN_ANOMALY":265.6886,"EPHEMERIS_TYPE":0,"CLASSIFICATION_TYPE":"U","NORAD_CAT_ID":48230,"ELEMENT_SET_NO":999,"REV_AT_EPOCH":24308,"BSTAR":-7.2244e-05,"MEAN_MOTION_DOT":-1.4e-07,"MEAN_MOTION_DDOT":0.0},{"OBJECT_NAME":"ONEWEB-0188","OBJECT_ID":"2021-031X","EPOCH":"2026-05-09T00:12:12.214080","MEAN_MOTION":13.14502525,"ECCENTRICITY":0.000174,"INCLINATION":87.8923,"RA_OF_ASC_NODE":297.5448,"ARG_OF_PERICENTER":96.8973,"MEAN_ANOMALY":263.2354,"EPHEMERIS_TYPE":0,"CLASSIFICATION_TYPE":"U","NORAD_CAT_ID":48231,"ELEMENT_SET_NO":999,"REV_AT_EPOCH":24299,"BSTAR":0.00023079,"MEAN_MOTION_DOT":9.8e-07,"MEAN_MOTION_DDOT":0.0},{"OBJECT_NAME":"ONEWEB-0220","OBJECT_ID":"2021-031Y","EPOCH":"2026-05-08T23:19:37.820064","MEAN_MOTION":13.14504639,"ECCENTRICITY":0.0001637,"INCLINATION":87.8936,"RA_OF_ASC_NODE":297.5195,"ARG_OF_PERICENTER":101.6322,"MEAN_ANOMALY":258.4992,"EPHEMERIS_TYPE":0,"CLASSIFICATION_TYPE":"U","NORAD_CAT_ID":48232,"ELEMENT_SET_NO":999,"REV_AT_EPOCH":24325,"BSTAR":-3.5159e-05,"MEAN_MOTION_DOT":0.0,"MEAN_MOTION_DDOT":0.0},{"OBJECT_NAME":"ONEWEB-0165","OBJECT_ID":"2021-031Z","EPOCH":"2026-05-09T00:00:44.754336","MEAN_MOTION":13.14504373,"ECCENTRICITY":0.0001427,"INCLINATION":87.8931,"RA_OF_ASC_NODE":297.5291,"ARG_OF_PERICENTER":91.0274,"MEAN_ANOMALY":269.1019,"EPHEMERIS_TYPE":0,"CLASSIFICATION_TYPE":"U","NORAD_CAT_ID":48233,"ELEMENT_SET_NO":999,"REV_AT_EPOCH":24321,"BSTAR":0.00058294,"MEAN_MOTION_DOT":2.29e-06,"MEAN_MOTION_DDOT":0.0},{"OBJECT_NAME":"ONEWEB-0199","OBJECT_ID":"2021-031AA","EPOCH":"2026-05-08T23:37:54.623136","MEAN_MOTION":13.14504496,"ECCENTRICITY":0.0001926,"INCLINATION":87.8935,"RA_OF_ASC_NODE":297.5159,"ARG_OF_PERICENTER":93.609,"MEAN_ANOMALY":266.526,"EPHEMERIS_TYPE":0,"CLASSIFICATION_TYPE":"U","NORAD_CAT_ID":48234,"ELEMENT_SET_NO":999,"REV_AT_EPOCH":24311,"BSTAR":0.0007360400000000001,"MEAN_MOTION_DOT":2.86e-06,"MEAN_MOTION_DDOT":0.0},{"OBJECT_NAME":"ONEWEB-0203","OBJECT_ID":"2021-031AB","EPOCH":"2026-05-08T23:24:13.024800","MEAN_MOTION":13.14504106,"ECCENTRICITY":0.0001765,"INCLINATION":87.8938,"RA_OF_ASC_NODE":297.5207,"ARG_OF_PERICENTER":89.1401,"MEAN_ANOMALY":270.9931,"EPHEMERIS_TYPE":0,"CLASSIFICATION_TYPE":"U","NORAD_CAT_ID":48235,"ELEMENT_SET_NO":999,"REV_AT_EPOCH":24312,"BSTAR":0.00013022,"MEAN_MOTION_DOT":6.1e-07,"MEAN_MOTION_DDOT":0.0},{"OBJECT_NAME":"ONEWEB-0197","OBJECT_ID":"2021-031AC","EPOCH":"2026-05-09T00:37:04.850112","MEAN_MOTION":13.14504358,"ECCENTRICITY":0.0001959,"INCLINATION":87.8926,"RA_OF_ASC_NODE":297.5012,"ARG_OF_PERICENTER":102.8989,"MEAN_ANOMALY":257.236,"EPHEMERIS_TYPE":0,"CLASSIFICATION_TYPE":"U","NORAD_CAT_ID":48236,"ELEMENT_SET_NO":999,"REV_AT_EPOCH":24304,"BSTAR":-0.00038239000000000003,"MEAN_MOTION_DOT":-1.29e-06,"MEAN_MOTION_DDOT":0.0},{"OBJECT_NAME":"ONEWEB-0194","OBJECT_ID":"2021-031AD","EPOCH":"2026-05-09T00:07:36.522912","MEAN_MOTION":13.14503454,"ECCENTRICITY":0.0001911,"INCLINATION":87.8934,"RA_OF_ASC_NODE":297.5253,"ARG_OF_PERICENTER":90.0685,"MEAN_ANOMALY":270.0664,"EPHEMERIS_TYPE":0,"CLASSIFICATION_TYPE":"U","NORAD_CAT_ID":48237,"ELEMENT_SET_NO":999,"REV_AT_EPOCH":24321,"BSTAR":0.0003339,"MEAN_MOTION_DOT":1.37e-06,"MEAN_MOTION_DDOT":0.0},{"OBJECT_NAME":"ONEWEB-0193","OBJECT_ID":"2021-031AE","EPOCH":"2026-05-09T00:30:26.667072","MEAN_MOTION":13.14497396,"ECCENTRICITY":0.000189,"INCLINATION":87.8932,"RA_OF_ASC_NODE":297.5127,"ARG_OF_PERICENTER":92.8724,"MEAN_ANOMALY":267.2622,"EPHEMERIS_TYPE":0,"CLASSIFICATION_TYPE":"U","NORAD_CAT_ID":48238,"ELEMENT_SET_NO":999,"REV_AT_EPOCH":24316,"BSTAR":0.002857,"MEAN_MOTION_DOT":1.072e-05,"MEAN_MOTION_DDOT":0.0},{"OBJECT_NAME":"ONEWEB-0191","OBJECT_ID":"2021-031AF","EPOCH":"2026-05-09T00:46:25.458240","MEAN_MOTION":13.14504524,"ECCENTRICITY":0.0001872,"INCLINATION":87.8933,"RA_OF_ASC_NODE":297.5075,"ARG_OF_PERICENTER":99.6039,"MEAN_ANOMALY":260.5302,"EPHEMERIS_TYPE":0,"CLASSIFICATION_TYPE":"U","NORAD_CAT_ID":48239,"ELEMENT_SET_NO":999,"REV_AT_EPOCH":24302,"BSTAR":-0.00045679,"MEAN_MOTION_DOT":-1.57e-06,"MEAN_MOTION_DDOT":0.0},{"OBJECT_NAME":"ONEWEB-0195","OBJECT_ID":"2021-031AG","EPOCH":"2026-05-09T00:13:19.942176","MEAN_MOTION":13.14504011,"ECCENTRICITY":0.0001375,"INCLINATION":87.8942,"RA_OF_ASC_NODE":297.5115,"ARG_OF_PERICENTER":93.8306,"MEAN_ANOMALY":266.2981,"EPHEMERIS_TYPE":0,"CLASSIFICATION_TYPE":"U","NORAD_CAT_ID":48240,"ELEMENT_SET_NO":999,"REV_AT_EPOCH":24300,"BSTAR":0.00021179,"MEAN_MOTION_DOT":9.1e-07,"MEAN_MOTION_DDOT":0.0},{"OBJECT_NAME":"ONEWEB-0201","OBJECT_ID":"2021-031AH","EPOCH":"2026-05-08T23:56:22.617600","MEAN_MOTION":13.1450417,"ECCENTRICITY":0.0001703,"INCLINATION":87.8921,"RA_OF_ASC_NODE":297.5348,"ARG_OF_PERICENTER":108.4916,"MEAN_ANOMALY":251.6398,"EPHEMERIS_TYPE":0,"CLASSIFICATION_TYPE":"U","NORAD_CAT_ID":48241,"ELEMENT_SET_NO":999,"REV_AT_EPOCH":24323,"BSTAR":0.00071629,"MEAN_MOTION_DOT":2.78e-06,"MEAN_MOTION_DDOT":0.0}]